[{"OBJECT_NAME":"TEVEL2-6","OBJECT_ID":"2025-052F","EPOCH":"2026-03-09T15:35:24.554400","MEAN_MOTION":15.30760889,"ECCENTRICITY":0.0004769,"INCLINATION":97.4016,"RA_OF_ASC_NODE":325.0381,"ARG_OF_PERICENTER":95.6604,"MEAN_ANOMALY":264.5181,"EPHEMERIS_TYPE":0,"CLASSIFICATION_TYPE":"U","NORAD_CAT_ID":63215,"ELEMENT_SET_NO":999,"REV_AT_EPOCH":5486,"BSTAR":0.00070909,"MEAN_MOTION_DOT":0.00021046,"MEAN_MOTION_DDOT":0},{"OBJECT_NAME":"STARLINK-35349","OBJECT_ID":"2025-221N","EPOCH":"2026-03-09T07:59:43.238976","MEAN_MOTION":15.30199749,"ECCENTRICITY":0.00011931,"INCLINATION":53.1591,"RA_OF_ASC_NODE":90.3675,"ARG_OF_PERICENTER":85.882,"MEAN_ANOMALY":274.2317,"EPHEMERIS_TYPE":0,"CLASSIFICATION_TYPE":"U","NORAD_CAT_ID":65835,"ELEMENT_SET_NO":999,"REV_AT_EPOCH":2467,"BSTAR":0.00076326249,"MEAN_MOTION_DOT":0.00022314,"MEAN_MOTION_DDOT":0}]
